start=new Date('2021-09-15T00:00:00.000Z').valueOf();
sats=[{"FILE":"3115650","INCLINATION":"53.0533","ELEMENT_SET_NO":"999","OBJECT_NAME":"STARLINK-1453","CLASSIFICATION_TYPE":"U","OBJECT_TYPE":"PAYLOAD","PERIOD":"95.592","MEAN_ELEMENT_THEORY":"SGP4","LAUNCH_DATE":"2020-06-04","REF_FRAME":"TEME","MEAN_MOTION_DDOT":"0.0000000000000","CENTER_NAME":"EARTH","PERIAPSIS":"545.962","NORAD_CAT_ID":"45670","EPOCH":"2021-09-14T19:07:24.313152","RCS_SIZE":"LARGE","TLE_LINE2":"2 45670  53.0533 184.9233 0001812  66.3522 293.7657 15.06398891 72322","ARG_OF_PERICENTER":"66.3522","MEAN_MOTION":"15.06398891","RA_OF_ASC_NODE":"184.9233","DECAY_DATE":null,"REV_AT_EPOCH":"7232","SEMIMAJOR_AXIS":"6925.352","EPHEMERIS_TYPE":"0","ECCENTRICITY":"0.00018120","TLE_LINE1":"1 45670U 20035P   21257.79680918  .00000721  00000-0  67325-4 0  9994","BSTAR":"0.00006732500000","APOAPSIS":"548.472","TIME_SYSTEM":"UTC","COUNTRY_CODE":"US","OBJECT_ID":"2020-035P","MEAN_ANOMALY":"293.7657","SITE":"AFETR","GP_ID":"184721497","MEAN_MOTION_DOT":"0.00000721"},{"MEAN_ELEMENT_THEORY":"SGP4","OBJECT_TYPE":"PAYLOAD","PERIOD":"95.592","LAUNCH_DATE":"2020-06-04","INCLINATION":"53.0535","ELEMENT_SET_NO":"999","FILE":"3115492","OBJECT_NAME":"STARLINK-1454","CLASSIFICATION_TYPE":"U","RCS_SIZE":"LARGE","TLE_LINE2":"2 45671  53.0535 216.6555 0001522  65.5807 294.5341 15.06399822 71941","ARG_OF_PERICENTER":"65.5807","CENTER_NAME":"EARTH","REF_FRAME":"TEME","MEAN_MOTION_DDOT":"0.0000000000000","NORAD_CAT_ID":"45671","EPOCH":"2021-09-14T09:51:25.228224","PERIAPSIS":"546.160","EPHEMERIS_TYPE":"0","ECCENTRICITY":"0.00015220","SEMIMAJOR_AXIS":"6925.349","TLE_LINE1":"1 45671U 20035Q   21257.41070866  .00001502  00000-0  11971-3 0  9992","APOAPSIS":"548.268","TIME_SYSTEM":"UTC","BSTAR":"0.00011971000000","RA_OF_ASC_NODE":"216.6555","DECAY_DATE":null,"MEAN_MOTION":"15.06399822","REV_AT_EPOCH":"7194","GP_ID":"184695132","MEAN_MOTION_DOT":"0.00001502","MEAN_ANOMALY":"294.5341","COUNTRY_CODE":"US","OBJECT_ID":"2020-035Q","SITE":"AFETR"},{"TLE_LINE1":"1 45672U 20035R   21257.75258383  .00000859  00000-0  76573-4 0  9996","BSTAR":"0.00007657300000","APOAPSIS":"548.650","TIME_SYSTEM":"UTC","EPHEMERIS_TYPE":"0","ECCENTRICITY":"0.00020470","SEMIMAJOR_AXIS":"6925.367","REV_AT_EPOCH":"7242","RA_OF_ASC_NODE":"185.1267","DECAY_DATE":null,"MEAN_MOTION":"15.06393939","MEAN_MOTION_DOT":"0.00000859","GP_ID":"184722000","SITE":"AFETR","COUNTRY_CODE":"US","MEAN_ANOMALY":"292.0063","OBJECT_ID":"2020-035R","LAUNCH_DATE":"2020-06-04","MEAN_ELEMENT_THEORY":"SGP4","PERIOD":"95.593","OBJECT_TYPE":"PAYLOAD","CLASSIFICATION_TYPE":"U","OBJECT_NAME":"STARLINK-1455","ELEMENT_SET_NO":"999","INCLINATION":"53.0561","FILE":"3115650","ARG_OF_PERICENTER":"68.1144","RCS_SIZE":"LARGE","TLE_LINE2":"2 45672  53.0561 185.1267 0002047  68.1144 292.0063 15.06393939 72428","EPOCH":"2021-09-14T18:03:43.242912","NORAD_CAT_ID":"45672","PERIAPSIS":"545.815","CENTER_NAME":"EARTH","MEAN_MOTION_DDOT":"0.0000000000000","REF_FRAME":"TEME"},{"OBJECT_NAME":"STARLINK-1456","CLASSIFICATION_TYPE":"U","INCLINATION":"53.0539","ELEMENT_SET_NO":"999","FILE":"3115492","LAUNCH_DATE":"2020-06-04","MEAN_ELEMENT_THEORY":"SGP4","OBJECT_TYPE":"PAYLOAD","PERIOD":"95.592","NORAD_CAT_ID":"45673","EPOCH":"2021-09-14T08:37:07.051296","PERIAPSIS":"545.862","CENTER_NAME":"EARTH","REF_FRAME":"TEME","MEAN_MOTION_DDOT":"0.0000000000000","ARG_OF_PERICENTER":"73.6261","TLE_LINE2":"2 45673  53.0539 216.8922 0001951  73.6261 286.4942 15.06400298 71955","RCS_SIZE":"LARGE","REV_AT_EPOCH":"7195","RA_OF_ASC_NODE":"216.8922","DECAY_DATE":null,"MEAN_MOTION":"15.06400298","TLE_LINE1":"1 45673U 20035S   21257.35910939  .00000771  00000-0  70631-4 0  9997","APOAPSIS":"548.564","TIME_SYSTEM":"UTC","BSTAR":"0.00007063100000","EPHEMERIS_TYPE":"0","ECCENTRICITY":"0.00019510","SEMIMAJOR_AXIS":"6925.348","SITE":"AFETR","COUNTRY_CODE":"US","OBJECT_ID":"2020-035S","MEAN_ANOMALY":"286.4942","MEAN_MOTION_DOT":"0.00000771","GP_ID":"184696116"},{"ARG_OF_PERICENTER":"69.1818","TLE_LINE2":"2 45674  53.0536 217.1523 0001504  69.1818 290.9332 15.06399950 71917","RCS_SIZE":"LARGE","EPOCH":"2021-09-14T07:12:11.297664","NORAD_CAT_ID":"45674","PERIAPSIS":"546.172","CENTER_NAME":"EARTH","MEAN_MOTION_DDOT":"0.0000000000000","REF_FRAME":"TEME","LAUNCH_DATE":"2020-06-04","MEAN_ELEMENT_THEORY":"SGP4","PERIOD":"95.592","OBJECT_TYPE":"PAYLOAD","CLASSIFICATION_TYPE":"U","OBJECT_NAME":"STARLINK-1457","ELEMENT_SET_NO":"999","INCLINATION":"53.0536","FILE":"3115492","MEAN_MOTION_DOT":"-0.00000276","GP_ID":"184694888","SITE":"AFETR","COUNTRY_CODE":"US","OBJECT_ID":"2020-035T","MEAN_ANOMALY":"290.9332","TLE_LINE1":"1 45674U 20035T   21257.30013076 -.00000276  00000-0  38003-6 0  9999","TIME_SYSTEM":"UTC","APOAPSIS":"548.255","BSTAR":"0.00000038003000","EPHEMERIS_TYPE":"0","ECCENTRICITY":"0.00015040","SEMIMAJOR_AXIS":"6925.349","REV_AT_EPOCH":"7191","RA_OF_ASC_NODE":"217.1523","DECAY_DATE":null,"MEAN_MOTION":"15.06399950"},{"LAUNCH_DATE":"2020-06-04","MEAN_ELEMENT_THEORY":"SGP4","PERIOD":"95.592","OBJECT_TYPE":"PAYLOAD","CLASSIFICATION_TYPE":"U","OBJECT_NAME":"STARLINK-1458","ELEMENT_SET_NO":"999","INCLINATION":"53.0543","FILE":"3115492","ARG_OF_PERICENTER":"69.6095","TLE_LINE2":"2 45675  53.0543 216.9099 0001480  69.6095 290.5053 15.06407236 71919","RCS_SIZE":"LARGE","EPOCH":"2021-09-14T08:31:48.040896","NORAD_CAT_ID":"45675","PERIAPSIS":"546.166","CENTER_NAME":"EARTH","MEAN_MOTION_DDOT":"0.0000000000000","REF_FRAME":"TEME","TLE_LINE1":"1 45675U 20035U   21257.35541714  .00001536  00000-0  12200-3 0  9997","APOAPSIS":"548.216","BSTAR":"0.00012200000000","TIME_SYSTEM":"UTC","ECCENTRICITY":"0.00014800","EPHEMERIS_TYPE":"0","SEMIMAJOR_AXIS":"6925.326","REV_AT_EPOCH":"7191","RA_OF_ASC_NODE":"216.9099","DECAY_DATE":null,"MEAN_MOTION":"15.06407236","MEAN_MOTION_DOT":"0.00001536","GP_ID":"184694633","SITE":"AFETR","COUNTRY_CODE":"US","MEAN_ANOMALY":"290.5053","OBJECT_ID":"2020-035U"},{"ARG_OF_PERICENTER":"62.7478","TLE_LINE2":"2 45676  53.0527 216.7367 0001582  62.7478 297.3672 15.06387542 71919","RCS_SIZE":"LARGE","PERIAPSIS":"546.156","NORAD_CAT_ID":"45676","EPOCH":"2021-09-14T09:24:53.708256","REF_FRAME":"TEME","MEAN_MOTION_DDOT":"0.0000000000000","CENTER_NAME":"EARTH","LAUNCH_DATE":"2020-06-04","OBJECT_TYPE":"PAYLOAD","PERIOD":"95.593","MEAN_ELEMENT_THEORY":"SGP4","OBJECT_NAME":"STARLINK-1460","CLASSIFICATION_TYPE":"U","FILE":"3115492","INCLINATION":"53.0527","ELEMENT_SET_NO":"999","MEAN_MOTION_DOT":"-0.00000607","GP_ID":"184695870","SITE":"AFETR","COUNTRY_CODE":"US","OBJECT_ID":"2020-035V","MEAN_ANOMALY":"297.3672","APOAPSIS":"548.347","TLE_LINE1":"1 45676U 20035V   21257.39228829 -.00000607  00000-0 -21852-4 0  9995","BSTAR":"-0.00002185200000","TIME_SYSTEM":"UTC","SEMIMAJOR_AXIS":"6925.387","EPHEMERIS_TYPE":"0","ECCENTRICITY":"0.00015820","REV_AT_EPOCH":"7191","MEAN_MOTION":"15.06387542","RA_OF_ASC_NODE":"216.7367","DECAY_DATE":null},{"TLE_LINE1":"1 45677U 20035W   21257.27065368 -.00000214  00000-0  45298-5 0  9994","TIME_SYSTEM":"UTC","APOAPSIS":"548.520","BSTAR":"0.00000452980000","ECCENTRICITY":"0.00018530","EPHEMERIS_TYPE":"0","SEMIMAJOR_AXIS":"6925.371","REV_AT_EPOCH":"7193","DECAY_DATE":null,"RA_OF_ASC_NODE":"217.2846","MEAN_MOTION":"15.06392593","MEAN_MOTION_DOT":"-0.00000214","GP_ID":"184695617","SITE":"AFETR","OBJECT_ID":"2020-035W","COUNTRY_CODE":"US","MEAN_ANOMALY":"300.4827","LAUNCH_DATE":"2020-06-04","MEAN_ELEMENT_THEORY":"SGP4","OBJECT_TYPE":"PAYLOAD","PERIOD":"95.593","OBJECT_NAME":"STARLINK-1392","CLASSIFICATION_TYPE":"U","INCLINATION":"53.0547","ELEMENT_SET_NO":"999","FILE":"3115492","ARG_OF_PERICENTER":"59.6345","TLE_LINE2":"2 45677  53.0547 217.2846 0001853  59.6345 300.4827 15.06392593 71931","RCS_SIZE":"LARGE","NORAD_CAT_ID":"45677","EPOCH":"2021-09-14T06:29:44.477952","PERIAPSIS":"545.953","CENTER_NAME":"EARTH","REF_FRAME":"TEME","MEAN_MOTION_DDOT":"0.0000000000000"},{"MEAN_MOTION_DOT":"0.00001513","GP_ID":"184694389","SITE":"AFETR","MEAN_ANOMALY":"301.4818","COUNTRY_CODE":"US","OBJECT_ID":"2020-035X","TLE_LINE1":"1 45678U 20035X   21257.26419172  .00001513  00000-0  12044-3 0  9993","APOAPSIS":"548.237","TIME_SYSTEM":"UTC","BSTAR":"0.00012044000000","EPHEMERIS_TYPE":"0","ECCENTRICITY":"0.00014800","SEMIMAJOR_AXIS":"6925.347","REV_AT_EPOCH":"7205","RA_OF_ASC_NODE":"207.3143","DECAY_DATE":null,"MEAN_MOTION":"15.06400614","ARG_OF_PERICENTER":"58.6316","TLE_LINE2":"2 45678  53.0534 207.3143 0001480  58.6316 301.4818 15.06400614 72050","RCS_SIZE":"LARGE","EPOCH":"2021-09-14T06:20:26.164608","NORAD_CAT_ID":"45678","PERIAPSIS":"546.187","CENTER_NAME":"EARTH","MEAN_MOTION_DDOT":"0.0000000000000","REF_FRAME":"TEME","LAUNCH_DATE":"2020-06-04","MEAN_ELEMENT_THEORY":"SGP4","PERIOD":"95.592","OBJECT_TYPE":"PAYLOAD","CLASSIFICATION_TYPE":"U","OBJECT_NAME":"STARLINK-1393","ELEMENT_SET_NO":"999","INCLINATION":"53.0534","FILE":"3115492"},{"APOAPSIS":"548.303","TLE_LINE1":"1 45679U 20035Y   21257.26787832  .00001413  00000-0  11373-3 0  9998","BSTAR":"0.00011373000000","TIME_SYSTEM":"UTC","EPHEMERIS_TYPE":"0","ECCENTRICITY":"0.00015640","SEMIMAJOR_AXIS":"6925.355","REV_AT_EPOCH":"7207","RA_OF_ASC_NODE":"207.2948","DECAY_DATE":null,"MEAN_MOTION":"15.06397831","MEAN_MOTION_DOT":"0.00001413","GP_ID":"184695133","SITE":"AFETR","MEAN_ANOMALY":"294.2959","COUNTRY_CODE":"US","OBJECT_ID":"2020-035Y","LAUNCH_DATE":"2020-06-04","MEAN_ELEMENT_THEORY":"SGP4","PERIOD":"95.592","OBJECT_TYPE":"PAYLOAD","CLASSIFICATION_TYPE":"U","OBJECT_NAME":"STARLINK-1394","ELEMENT_SET_NO":"999","INCLINATION":"53.0545","FILE":"3115492","ARG_OF_PERICENTER":"65.8193","TLE_LINE2":"2 45679  53.0545 207.2948 0001564  65.8193 294.2959 15.06397831 72074","RCS_SIZE":"LARGE","EPOCH":"2021-09-14T06:25:44.686848","NORAD_CAT_ID":"45679","PERIAPSIS":"546.137","CENTER_NAME":"EARTH","MEAN_MOTION_DDOT":"0.0000000000000","REF_FRAME":"TEME"}];
